ATLAS CENTAUR 2         
1 00694U 63047A   26197.11580556  .00000474  00000+0  45517-4 0  9995
2 00694  30.3512 197.6078 0545680 132.6377 232.1557 14.12565363149791
THOR AGENA D R/B        
1 00733U 64002A   26197.04205037  .00000066  00000+0  40858-4 0  9991
2 00733  99.1156 217.3305 0031845 244.0472 115.7429 14.34076255256695
SL-3 R/B                
1 00877U 64053B   26196.72881862  .00000036  00000+0  31376-4 0  9998
2 00877  65.0781 315.8244 0080246 252.1364 107.0972 14.61439759285506
SL-8 R/B                
1 02802U 67045B   26197.14958192  .00000124  00000+0  41765-4 0  9991
2 02802  74.0110 108.1667 0063033  84.5581 276.2763 14.45695651107582
SL-8 R/B                
1 03230U 68040B   26197.05394264  .00001193  00000+0  89130-4 0  9992
2 03230  74.0291  51.2475 0025052 199.1848 160.8400 15.03942072109306
OAO 2                   
1 03597U 68110A   26196.20051268  .00000087  00000+0  28574-4 0  9992
2 03597  34.9932 273.2648 0005043 144.8528 215.2496 14.47361771 37585
ISIS 1                  
1 03669U 69009A   26196.87090119  .00000051  00000+0  29122-4 0  9992
2 03669  88.4451 141.2501 1707151 190.2908 165.8508 11.30436632363016
SERT 2                  
1 04327U 70009A   26196.82521954 -.00000015  00000+0  35768-4 0  9991
2 04327  99.2839 133.0017 0004568 187.4797 231.8950 13.58741010797291
SL-3 R/B                
1 05118U 71028B   26197.16098486  .00035000  00000+0  25989-3 0  9993
2 05118  81.2300 252.0088 0014665 178.6090 181.5213 15.72527031  8797
ASTEX 1                 
1 05560U 71089A   26196.90138978  .00000217  00000+0  55319-4 0  9996
2 05560  92.7006 193.1037 0016246  20.1575 340.0269 14.50871764880895
SL-8 R/B                
1 05730U 71119B   26196.50885086  .00004246  00000+0  21835-3 0  9995
2 05730  73.8885 296.3648 0542743 236.6298 118.1806 14.39737222673871
OAO 3 (COPERNICUS)      
1 06153U 72065A   26196.33725358  .00000129  00000+0  30738-4 0  9991
2 06153  35.0060 290.0081 0006041 127.7196 268.1201 14.60074868864861
ATLAS CENTAUR R/B       
1 06155U 72065B   26196.65070256  .00000352  00000+0  51043-4 0  9998
2 06155  35.0013 275.6700 0033493   6.5763 353.5372 14.77966118860201
SL-8 R/B                
1 08459U 75112B   26197.11555741  .00000114  00000+0  45986-4 0  9997
2 08459  74.0608 142.6554 0016161 205.2779 154.7586 14.38258408650333
SL-3 R/B                
1 10114U 77057B   26197.17338368  .00005863  00000+0  11236-3 0  9994
2 10114  97.5851  15.1315 0007295 166.8153 193.3289 15.48423380688198
SEASAT 1                
1 10967U 78064A   26197.15170580  .00000008  00000+0  40769-4 0  9997
2 10967 108.0181  35.0931 0001080 257.2343 102.8682 14.46260452525081
SL-14 R/B               
1 11267U 79011B   26196.87917671  .00000257  00000+0  22801-4 0  9995
2 11267  82.5255 334.9238 0015730 354.8548   5.2507 14.92038345547892
SL-8 R/B                
1 11574U 79089B   26197.12661008  .00000052  00000+0  23559-4 0  9994
2 11574  74.0670 213.2845 0016065 347.8969  12.1799 14.42414648454621
SL-14 R/B               
1 11672U 80005B   26197.04387928  .00000239  00000+0  21468-4 0  9994
2 11672  82.5137 185.4662 0017349  94.9987 265.3213 14.91050454495617
SL-8 R/B                
1 12139U 81003B   26196.95659691  .00012645  00000+0  29951-3 0  9998
2 12139  82.9364 171.0263 0250078  90.9751 272.0143 15.15084447334078
SL-3 R/B                
1 12465U 81046B   26197.14884731  .00006711  00000+0  14208-3 0  9990
2 12465  81.2319 135.1659 0015708 293.4821  66.4772 15.44792682458247
SL-3 R/B                
1 12904U 81103B   26197.17077183  .00002357  00000+0  10049-3 0  9991
2 12904  81.1568  62.5754 0012126 208.3268 151.7306 15.22492644992773
SL-3 R/B                
1 13068U 82013B   26197.19894562  .00001741  00000+0  72452-4 0  9997
2 13068  81.1735   9.9959 0022937 105.2643 255.1127 15.22965675423909
SL-3 R/B                
1 13154U 82039B   26197.11331242  .00001584  00000+0  93416-4 0  9992
2 13154  81.1510  67.6707 0028386 255.2438 104.5641 15.10700975401024
SL-3 R/B                
1 13403U 82079B   26197.16615524  .00002822  00000+0  10768-3 0  9990
2 13403  81.1442  41.2009 0024984  90.4312 269.9784 15.26018848397282
SL-14 R/B               
1 13553U 82092B   26197.00205110  .00000212  00000+0  20981-4 0  9990
2 13553  82.5669  21.3352 0019039 232.8590 241.3566 14.86765134347996
SL-3 R/B                
1 13819U 83010B   26197.11714042  .00007988  00000+0  14188-3 0  9995
2 13819  81.0993 204.3141 0013225 320.0518  39.9755 15.49924532377819
SL-3 R/B                
1 14208U 83075B   26197.16465311  .00005386  00000+0  13178-3 0  9994
2 14208  97.6104 206.8637 0022223 126.4309 233.8990 15.40990866349921
COSMOS 1536             
1 14699U 84013A   26196.89827588  .00003468  00000+0  13589-3 0  9993
2 14699  82.5458 340.2403 0013986 185.7657 174.3422 15.25348792292153
SL-14 R/B               
1 14820U 84027B   26196.89887828  .00000203  00000+0  20367-4 0  9994
2 14820  82.5430 124.7941 0016318 268.9824  90.9522 14.86079380266675
SL-8 R/B                
1 15483U 85006B   26196.96889559  .00000119  00000+0  48056-4 0  9990
2 15483  74.0454  25.0972 0019256 268.0412 201.3692 14.37845580172466
